{
  "norad_id": 54758,
  "name": "STARLINK-5464",
  "history": [
    {
      "epoch": "2026-03-28T21:07:26.960160Z",
      "apogee_km": 540.8579527998472,
      "perigee_km": 538.6370351618989,
      "latitude_deg": 1.0125086450616553e-05,
      "longitude_deg": 170.0094993655676,
      "height_km": 540.5912593412444,
      "semi_major_axis_km": 6917.884493980872,
      "eccentricity": 0.00016052,
      "inclination_deg": 53.2185,
      "raan_deg": 313.1661,
      "arg_perigee_deg": 87.3307,
      "mean_anomaly_deg": 272.7869,
      "mean_motion_rev_day": 15.08838657
    },
    {
      "epoch": "2026-03-29T00:18:13.118112Z",
      "apogee_km": 540.869541290911,
      "perigee_km": 538.6156961111383,
      "latitude_deg": 3.1647678332725524e-05,
      "longitude_deg": 121.59161358187446,
      "height_km": 540.5869170796125,
      "semi_major_axis_km": 6917.879618701024,
      "eccentricity": 0.0001629,
      "inclination_deg": 53.2183,
      "raan_deg": 312.5711,
      "arg_perigee_deg": 87.3998,
      "mean_anomaly_deg": 272.7181,
      "mean_motion_rev_day": 15.08840252
    },
    {
      "epoch": "2026-03-29T20:58:13.973376Z",
      "apogee_km": 540.8657055787044,
      "perigee_km": 538.6142133434787,
      "latitude_deg": -4.799862017278051e-05,
      "longitude_deg": 166.8732316048553,
      "height_km": 540.6195411570051,
      "semi_major_axis_km": 6917.876959461091,
      "eccentricity": 0.00016273,
      "inclination_deg": 53.2183,
      "raan_deg": 308.7051,
      "arg_perigee_deg": 89.1931,
      "mean_anomaly_deg": 270.9247,
      "mean_motion_rev_day": 15.08841122
    },
    {
      "epoch": "2026-03-30T08:05:55.702464Z",
      "apogee_km": 540.8576293979067,
      "perigee_km": 538.6118115225754,
      "latitude_deg": 6.917634347094837e-05,
      "longitude_deg": -2.589373341385326,
      "height_km": 540.6223349156367,
      "semi_major_axis_km": 6917.871720460241,
      "eccentricity": 0.00016232,
      "inclination_deg": 53.2182,
      "raan_deg": 306.6233,
      "arg_perigee_deg": 89.6021,
      "mean_anomaly_deg": 270.5158,
      "mean_motion_rev_day": 15.08842836
    },
    {
      "epoch": "2026-03-30T20:49:01.165440Z",
      "apogee_km": 540.8864630606504,
      "perigee_km": 538.6200238590882,
      "latitude_deg": 1.1743806137177844e-05,
      "longitude_deg": 163.7367049062406,
      "height_km": 540.6493024647683,
      "semi_major_axis_km": 6917.8902434598685,
      "eccentricity": 0.00016381,
      "inclination_deg": 53.2183,
      "raan_deg": 304.2445,
      "arg_perigee_deg": 90.0329,
      "mean_anomaly_deg": 270.0851,
      "mean_motion_rev_day": 15.08836776
    },
    {
      "epoch": "2026-03-30T23:59:47.372640Z",
      "apogee_km": 540.894369521,
      "perigee_km": 538.6008140634385,
      "latitude_deg": 1.5475883231450242e-06,
      "longitude_deg": 115.31848997121418,
      "height_km": 540.6860688810566,
      "semi_major_axis_km": 6917.884591792219,
      "eccentricity": 0.00016577,
      "inclination_deg": 53.2185,
      "raan_deg": 303.6494,
      "arg_perigee_deg": 92.1525,
      "mean_anomaly_deg": 267.9657,
      "mean_motion_rev_day": 15.08838625
    },
    {
      "epoch": "2026-04-01T20:30:35.506368Z",
      "apogee_km": 540.8665332204464,
      "perigee_km": 538.6555730026712,
      "latitude_deg": -1.9735306398617436e-05,
      "longitude_deg": 157.46332023854907,
      "height_km": 540.6421133522538,
      "semi_major_axis_km": 6917.8980531115585,
      "eccentricity": 0.0001598,
      "inclination_deg": 53.2188,
      "raan_deg": 295.3229,
      "arg_perigee_deg": 89.2504,
      "mean_anomaly_deg": 270.8671,
      "mean_motion_rev_day": 15.08834221
    },
    {
      "epoch": "2026-04-02T06:02:53.251008Z",
      "apogee_km": 540.987711143448,
      "perigee_km": 538.4506565665806,
      "latitude_deg": 6.972977503838092e-06,
      "longitude_deg": 12.213381933290837,
      "height_km": 540.6925534100435,
      "semi_major_axis_km": 6917.856183855014,
      "eccentricity": 0.00018337,
      "inclination_deg": 53.2197,
      "raan_deg": 293.5386,
      "arg_perigee_deg": 93.5291,
      "mean_anomaly_deg": 266.5911,
      "mean_motion_rev_day": 15.08847919
    },
    {
      "epoch": "2026-04-03T18:36:47.320416Z",
      "apogee_km": 540.9222850751257,
      "perigee_km": 538.6407555471269,
      "latitude_deg": -3.3119903031526325e-05,
      "longitude_deg": 175.39739140573172,
      "height_km": 540.7752872460838,
      "semi_major_axis_km": 6917.9185203111265,
      "eccentricity": 0.0001649,
      "inclination_deg": 53.2176,
      "raan_deg": 286.6996,
      "arg_perigee_deg": 94.9503,
      "mean_anomaly_deg": 265.1677,
      "mean_motion_rev_day": 15.08827525
    },
    {
      "epoch": "2026-04-03T21:47:33.579456Z",
      "apogee_km": 540.743929731244,
      "perigee_km": 538.7941870877412,
      "latitude_deg": -4.954437425595451e-05,
      "longitude_deg": 126.97935508632611,
      "height_km": 540.6762609958573,
      "semi_major_axis_km": 6917.906058409492,
      "eccentricity": 0.00014092,
      "inclination_deg": 53.2184,
      "raan_deg": 286.1049,
      "arg_perigee_deg": 90.6732,
      "mean_anomaly_deg": 269.4421,
      "mean_motion_rev_day": 15.08831602
    },
    {
      "epoch": "2026-04-05T11:56:49.499232Z",
      "apogee_km": 540.6930541558886,
      "perigee_km": 538.9224753727949,
      "latitude_deg": 2.1804260301916347e-05,
      "longitude_deg": -94.0403725538229,
      "height_km": 540.7245080964209,
      "semi_major_axis_km": 6917.944764764341,
      "eccentricity": 0.00012797,
      "inclination_deg": 53.2174,
      "raan_deg": 278.9684,
      "arg_perigee_deg": 91.3552,
      "mean_anomaly_deg": 268.7587,
      "mean_motion_rev_day": 15.08818939
    }
  ]
}